NORAD_CAT_ID,OBJECT_NAME,OBJECT_TYPE,EPOCH,MEAN_MOTION,ECCENTRICITY,INCLINATION,RA_OF_ASC_NODE,ARG_OF_PERICENTER,MEAN_ANOMALY,BSTAR,MEAN_MOTION_DOT,MEAN_MOTION_DDOT,TLE_LINE0,TLE_LINE1,TLE_LINE2,SEMIMAJOR_AXIS,PERIOD,APOGEE,PERIGEE,DECAYED
50832.0,STARLINK-3328,PAYLOAD,2024-04-15 06:00:15,15.08848248,0.0001617,53.2198,52.1361,77.1572,282.9601,0.00010041,1.311e-05,0.0,0 STARLINK-3328,1 50832U 22001AF  24106.25017437  .00001311  00000-0  10041-3 0  9990,2 50832  53.2198  52.1361 0001617  77.1572 282.9601 15.08848248125587,6917.855,95.437,540.839,538.602,0.0
50832.0,STARLINK-3328,PAYLOAD,2024-04-16 02:40:16,15.08839843,0.0001614,53.2199,48.2705,103.1969,256.9204,1.0368e-05,-1.23e-06,0.0,0 STARLINK-3328,1 50832U 22001AF  24107.11129916 -.00000123  00000-0  10368-4 0  9996,2 50832  53.2199  48.2705 0001614 103.1969 256.9204 15.08839843126967,6917.881,95.438,540.862,538.629,0.0
50832.0,STARLINK-3328,PAYLOAD,2024-04-16 05:51:02,15.08844017,0.0001652,53.2199,47.6739,108.9431,251.1741,3.3979e-05,2.53e-06,0.0,0 STARLINK-3328,1 50832U 22001AF  24107.24377608  .00000253  00000-0  33979-4 0  9999,2 50832  53.2199  47.6739 0001652 108.9431 251.1741 15.08844017125732,6917.868,95.437,540.876,538.59,0.0
50832.0,STARLINK-3328,PAYLOAD,2024-04-17 02:31:02,15.08852459,0.0001411,53.2181,43.8108,103.4206,256.6944,0.00020351,2.953e-05,0.0,0 STARLINK-3328,1 50832U 22001AF  24108.10488937  .00002953  00000-0  20351-3 0  9991,2 50832  53.2181  43.8108 0001411 103.4206 256.6944 15.08852459127112,6917.842,95.437,540.683,538.731,0.0
50832.0,STARLINK-3328,PAYLOAD,2024-04-18 00:46:27,15.08828071,0.000138,53.2176,39.6485,103.8531,256.2615,-3.1558e-05,-7.9e-06,0.0,0 STARLINK-3328,1 50832U 22001AF  24109.03226396 -.00000790  00000-0 -31558-4 0  9994,2 50832  53.2176  39.6485 0001380 103.8531 256.2615 15.08828071127256,6917.917,95.438,540.737,538.827,0.0
50832.0,STARLINK-3328,PAYLOAD,2024-04-18 23:01:52,15.08824816,0.0001313,53.2172,35.484,78.6721,281.4419,-6.4455e-05,-1.313e-05,0.0,0 STARLINK-3328,1 50832U 22001AF  24109.95963549 -.00001313  00000-0 -64455-4 0  9997,2 50832  53.2172  35.4840 0001313  78.6721 281.4419 15.08824816126149,6917.927,95.439,540.7,538.883,0.0
50832.0,STARLINK-3328,PAYLOAD,2024-04-19 00:37:15,15.08832327,0.0001339,53.2172,35.1864,81.3687,278.7457,-3.1954e-05,-7.96e-06,0.0,0 STARLINK-3328,1 50832U 22001AF  24110.02587289 -.00000796  00000-0 -31954-4 0  9992,2 50832  53.2172  35.1864 0001339  81.3687 278.7457 15.08832327126150,6917.904,95.438,540.695,538.843,0.0
50832.0,STARLINK-3328,PAYLOAD,2024-04-19 22:52:38,15.08855826,0.0001432,53.2171,31.0227,64.7795,295.3345,0.0006517,0.00010103,0.0,0 STARLINK-3328,1 50832U 22001AF  24110.95322831  .00010103  00000-0  65170-3 0  9991,2 50832  53.2171  31.0227 0001432  64.7795 295.3345 15.08855826126291,6917.832,95.437,540.688,538.706,0.0
50832.0,STARLINK-3328,PAYLOAD,2024-04-20 03:38:47,15.08887421,0.0001706,53.2187,30.1344,104.0979,256.0203,0.0011817,0.00018593,0.0,0 STARLINK-3328,1 50832U 22001AF  24111.15193901  .00018593  00000-0  11817-2 0  9997,2 50832  53.2187  30.1344 0001706 104.0979 256.0203 15.08887421127579,6917.735,95.435,540.781,538.42,0.0
50832.0,STARLINK-3328,PAYLOAD,2024-04-20 17:57:15,15.08869307,0.0002392,53.2183,27.4634,93.9805,266.1461,0.00043448,6.639e-05,0.0,0 STARLINK-3328,1 50832U 22001AF  24111.74809730  .00006639  00000-0  43448-3 0  9990,2 50832  53.2183  27.4634 0002392  93.9805 266.1461 15.08869307127663,6917.791,95.436,541.311,538.001,0.0
50832.0,STARLINK-3328,PAYLOAD,2024-04-21 03:29:36,15.08785273,0.0001348,53.2181,25.6738,98.0954,262.0191,0.00057416,8.848e-05,0.0,0 STARLINK-3328,1 50832U 22001AF  24112.14555600  .00008848  00000-0  57416-3 0  9993,2 50832  53.2181  25.6738 0001348  98.0954 262.0191 15.08785273127728,6918.048,95.441,540.845,538.98,0.0
50832.0,STARLINK-3328,PAYLOAD,2024-04-21 20:58:51,15.08859909,0.0001248,53.2179,22.4015,96.5739,263.5395,0.0029077,0.00046318,0.0,0 STARLINK-3328,1 50832U 22001AF  24112.87420709  .00046318  00000-0  29077-2 0  9999,2 50832  53.2179  22.4015 0001248  96.5739 263.5395 15.08859909127833,6917.82,95.436,540.548,538.821,0.0
50832.0,STARLINK-3328,PAYLOAD,2024-04-21 22:34:14,15.08869231,0.0001303,53.2181,22.1029,93.9987,266.1155,0.0031376,0.00050042,0.0,0 STARLINK-3328,1 50832U 22001AF  24112.94044606  .00050042  00000-0  31376-2 0  9999,2 50832  53.2181  22.1029 0001303  93.9987 266.1155 15.08869231126590,6917.791,95.436,540.557,538.755,0.0
50832.0,STARLINK-3328,PAYLOAD,2024-04-22 03:20:23,15.08887802,0.000125,53.2178,21.2119,97.534,262.5794,0.002854,0.00045486,0.0,0 STARLINK-3328,1 50832U 22001AF  24113.13916076  .00045486  00000-0  28540-2 0  9995,2 50832  53.2178  21.2119 0001250  97.5340 262.5794 15.08887802126627,6917.734,95.435,540.464,538.735,0.0
50832.0,STARLINK-3328,PAYLOAD,2024-04-22 17:38:50,15.08884316,0.0001071,53.2184,18.5377,115.7124,244.3979,0.0018369,0.00029103,0.0,0 STARLINK-3328,1 50832U 22001AF  24113.73531193  .00029103  00000-0  18369-2 0  9990,2 50832  53.2184  18.5377 0001071 115.7124 244.3979 15.08884316127961,6917.745,95.435,540.351,538.869,0.0
50832.0,STARLINK-3328,PAYLOAD,2024-04-22 22:25:00,15.08845259,0.0001068,53.2181,17.6436,37.1124,322.9942,0.00060985,9.433e-05,0.0,0 STARLINK-3328,1 50832U 22001AF  24113.93403582  .00009433  00000-0  60985-3 0  9998,2 50832  53.2181  17.6436 0001068  37.1124 322.9942 15.08845259126748,6917.864,95.437,540.468,538.99,0.0
50832.0,STARLINK-3328,PAYLOAD,2024-04-23 00:00:23,15.08843747,0.0001233,53.2186,17.3485,94.1516,265.9617,0.00092057,0.00014395,0.0,0 STARLINK-3328,1 50832U 22001AF  24114.00027546  .00014395  00000-0  92057-3 0  9997,2 50832  53.2186  17.3485 0001233  94.1516 265.9617 15.08843747128002,6917.869,95.437,540.587,538.881,0.0
50832.0,STARLINK-3328,PAYLOAD,2024-04-23 20:40:24,15.08847706,0.0001303,53.2181,13.4824,102.3411,257.7727,0.00081711,0.00012743,0.0,0 STARLINK-3328,1 50832U 22001AF  24114.86139686  .00012743  00000-0  81711-3 0  9990,2 50832  53.2181  13.4824 0001303 102.3411 257.7727 15.08847706128139,6917.857,95.437,540.623,538.82,0.0
50832.0,STARLINK-3328,PAYLOAD,2024-04-23 22:15:47,15.08846014,0.0001361,53.2185,13.1821,111.1254,248.9884,0.00058048,8.964e-05,0.0,0 STARLINK-3328,1 50832U 22001AF  24114.92763585  .00008964  00000-0  58048-3 0  9995,2 50832  53.2185  13.1821 0001361 111.1254 248.9884 15.08846014126892,6917.862,95.437,540.669,538.785,0.0
50832.0,STARLINK-3328,PAYLOAD,2024-04-23 23:51:11,15.08844893,0.0001142,53.2189,12.8903,83.1138,276.9984,0.00052734,8.116e-05,0.0,0 STARLINK-3328,1 50832U 22001AF  24114.99387754  .00008116  00000-0  52734-3 0  9997,2 50832  53.2189  12.8903 0001142  83.1138 276.9984 15.08844893128155,6917.865,95.437,540.52,538.94,0.0
50832.0,STARLINK-3328,PAYLOAD,2024-04-24 20:31:11,15.08844659,0.0001466,53.2202,9.0246,107.71,252.4052,0.00036599,5.542e-05,0.0,0 STARLINK-3328,1 50832U 22001AF  24115.85499903  .00005542  00000-0  36599-3 0  9994,2 50832  53.2202   9.0246 0001466 107.7100 252.4052 15.08844659128289,6917.866,95.437,540.745,538.717,0.0
50832.0,STARLINK-3328,PAYLOAD,2024-04-24 22:06:35,15.08838386,0.0001231,53.2185,8.7235,86.1857,273.9276,0.0001368,1.89e-05,0.0,0 STARLINK-3328,1 50832U 22001AF  24115.92124018  .00001890  00000-0  13680-3 0  9992,2 50832  53.2185   8.7235 0001231  86.1857 273.9276 15.08838386127041,6917.885,95.438,540.602,538.899,0.0
50832.0,STARLINK-3328,PAYLOAD,2024-04-25 02:52:44,15.08841625,0.0001226,53.2187,7.8305,97.4167,262.6964,0.00018786,2.703e-05,0.0,0 STARLINK-3328,1 50832U 22001AF  24116.11995925  .00002703  00000-0  18786-3 0  9993,2 50832  53.2187   7.8305 0001226  97.4167 262.6964 15.08841625127076,6917.875,95.437,540.589,538.892,0.0
50832.0,STARLINK-3328,PAYLOAD,2024-04-25 20:21:59,15.08841418,0.000127,53.2186,4.5584,97.0886,263.0251,0.00019554,2.826e-05,0.0,0 STARLINK-3328,1 50832U 22001AF  24116.84860054  .00002826  00000-0  19554-3 0  9997,2 50832  53.2186   4.5584 0001270  97.0886 263.0251 15.08841418128436,6917.876,95.437,540.62,538.862,0.0
50832.0,STARLINK-3328,PAYLOAD,2024-04-25 21:57:22,15.08841206,0.0001237,53.2184,4.2611,97.5784,262.5348,0.00017349,2.474e-05,0.0,0 STARLINK-3328,1 50832U 22001AF  24116.91484038  .00002474  00000-0  17349-3 0  9998,2 50832  53.2184   4.2611 0001237  97.5784 262.5348 15.08841206127195,6917.877,95.437,540.597,538.886,0.0
50832.0,STARLINK-3328,PAYLOAD,2024-04-26 09:05:03,15.08857109,9.63e-05,53.2189,2.1866,85.0923,275.018,0.00034062,5.14e-05,0.0,0 STARLINK-3328,1 50832U 22001AF  24117.37851108  .00005140  00000-0  34062-3 0  9999,2 50832  53.2189   2.1866 0000963  85.0923 275.0180 15.08857109128510,6917.828,95.436,540.359,539.027,0.0
50832.0,STARLINK-3328,PAYLOAD,2024-04-26 20:12:46,15.08833775,0.0001319,53.2178,0.0985,80.691,279.4231,-9.5808e-05,-1.812e-05,0.0,0 STARLINK-3328,1 50832U 22001AF  24117.84219980 -.00001812  00000-0 -95808-4 0  9997,2 50832  53.2178   0.0985 0001319  80.6910 279.4231 15.08833775128585,6917.899,95.438,540.677,538.852,0.0
50832.0,STARLINK-3328,PAYLOAD,2024-04-27 02:34:18,15.08854694,0.0001147,53.2167,358.9107,85.0091,275.1032,0.00029989,4.49e-05,0.0,0 STARLINK-3328,1 50832U 22001AF  24118.10715279  .00004490  00000-0  29989-3 0  9998,2 50832  53.2167 358.9107 0001147  85.0091 275.1032 15.08854694128622,6917.835,95.437,540.494,538.907,0.0
50832.0,STARLINK-3328,PAYLOAD,2024-04-27 08:55:49,15.08872129,7.17e-05,53.2176,357.7202,53.6642,306.4416,0.00048092,7.381e-05,0.0,0 STARLINK-3328,1 50832U 22001AF  24118.37209768  .00007381  00000-0  48092-3 0  9996,2 50832  53.2176 357.7202 0000717  53.6642 306.4416 15.08872129128661,6917.782,95.436,540.143,539.151,0.0
50832.0,STARLINK-3328,PAYLOAD,2024-04-27 20:03:33,15.08824023,9.23e-05,53.2174,355.6433,73.7091,286.4002,-0.00036726,-6.125e-05,0.0,0 STARLINK-3328,1 50832U 22001AF  24118.83580365 -.00006125  00000-0 -36726-3 0  9990,2 50832  53.2174 355.6433 0000923  73.7091 286.4002 15.08824023128738,6917.929,95.439,540.433,539.156,0.0
